IRIDIUM 106             
1 41917U 17003A   23246.24255973  .00000462  00000+0  15810-3 0  9996
2 41917  86.4031 153.9584 0002294  76.3052 283.8399 14.34212064347307
IRIDIUM 103             
1 41918U 17003B   23246.50896221  .00000393  00000+0  13314-3 0  9993
2 41918  86.4027 153.7501 0002480  86.6449 273.5030 14.34221009347364
IRIDIUM 109             
1 41919U 17003C   23246.23623174  .00000421  00000+0  14341-3 0  9992
2 41919  86.4030 153.9065 0002195  89.7313 270.4134 14.34218041347298
IRIDIUM 102             
1 41920U 17003D   23246.48359325  .00000382  00000+0  12949-3 0  9993
2 41920  86.4026 153.7486 0002197  85.8253 274.3194 14.34219245347412
IRIDIUM 105             
1 41921U 17003E   23246.38454324  .00000370  00000+0  12512-3 0  9991
2 41921  86.3968 122.2354 0002165  85.7011 274.4432 14.34215768349254
IRIDIUM 104             
1 41922U 17003F   23246.49628276  .00000374  00000+0  12646-3 0  9995
2 41922  86.4028 153.7705 0002296  84.3541 275.7916 14.34217264347409
IRIDIUM 114             
1 41923U 17003G   23246.50262031  .00000261  00000+0  86201-4 0  9995
2 41923  86.4030 153.7546 0002110  76.5281 283.6150 14.34216339347382
IRIDIUM 108             
1 41924U 17003H   23246.39137272  .00000045  00000+0  90228-5 0  9996
2 41924  86.3964 122.1761 0002367  78.8746 281.2716 14.34216471349226
